GLOBALSTAR M084 [+]     
1 38040U 11080A   24013.51105868 -.00000111  00000+0 -41872-4 0  9999
2 38040  51.9982 193.6024 0000995  74.1891 325.3744 12.62270151556910
GLOBALSTAR M080 [+]     
1 38041U 11080B   24012.71248751 -.00000110  00000+0 -33998-4 0  9999
2 38041  52.0032 197.4582 0000864  65.9981  62.5961 12.62268400556930
GLOBALSTAR M082 [+]     
1 38042U 11080C   24013.58617344 -.00000116  00000+0 -65943-4 0  9995
2 38042  52.0062 150.1870 0001551 115.1686 326.4341 12.62265061557759
GLOBALSTAR M092 [+]     
1 38043U 11080D   24012.84750733 -.00000073  00000+0  17361-3 0  9995
2 38043  52.0067 242.7916 0001137  56.0405  24.5788 12.62240810556111
GLOBALSTAR M090 [+]     
1 38044U 11080E   24013.53236140 -.00000119  00000+0 -83632-4 0  9991
2 38044  51.9873 144.8294 0001156 116.8763 320.8525 12.62265171557860
GLOBALSTAR M086 [+]     
1 38045U 11080F   24013.55956726 -.00000106  00000+0 -10403-4 0  9995
2 38045  51.9887 145.2580 0000707 177.8273 262.7524 12.62266437557817
GLOBALSTAR M097 [+]     
1 39072U 13005A   24013.40961916 -.00000084  00000+0  10988-3 0  9997
2 39072  52.0059  59.7315 0000706 150.6609 209.4298 12.62273592505041
GLOBALSTAR M093 [+]     
1 39073U 13005B   24013.38307703 -.00000085  00000+0  10490-3 0  9992
2 39073  51.9823  53.9483 0000702 161.7101 198.3790 12.62259896504994
